start=new Date('2022-04-14T00:00:00.000Z').valueOf();
sats=[{"MEAN_MOTION_DDOT":"0.0000000000000","CLASSIFICATION_TYPE":"U","EPOCH":"2022-04-13T18:19:57.895392","SITE":"AFETR","LAUNCH_DATE":"2021-03-14","INCLINATION":"53.0536","BSTAR":"0.00123640000000","TLE_LINE2":"2 47878  53.0536 192.8526 0002072  46.0870 314.0289 15.06418367 61068","CENTER_NAME":"EARTH","EPHEMERIS_TYPE":"0","DECAY_DATE":null,"ECCENTRICITY":"0.00020720","REF_FRAME":"TEME","MEAN_MOTION":"15.06418367","MEAN_ELEMENT_THEORY":"SGP4","ELEMENT_SET_NO":"999","PERIOD":"95.591","PERIAPSIS":"545.722","SEMIMAJOR_AXIS":"6925.292","ARG_OF_PERICENTER":"46.0870","OBJECT_ID":"2021-021U","FILE":"3400454","TLE_LINE1":"1 47878U 21021U   22103.76386453  .00018192  00000-0  12364-2 0  9999","OBJECT_NAME":"STARLINK-2335","MEAN_ANOMALY":"314.0289","MEAN_MOTION_DOT":"0.00018192","REV_AT_EPOCH":"6106","COUNTRY_CODE":"US","TIME_SYSTEM":"UTC","RA_OF_ASC_NODE":"192.8526","NORAD_CAT_ID":"47878","OBJECT_TYPE":"PAYLOAD","APOAPSIS":"548.592","GP_ID":"201174745","RCS_SIZE":"LARGE"},{"APOAPSIS":"548.473","GP_ID":"201174996","RCS_SIZE":"LARGE","RA_OF_ASC_NODE":"207.8737","TIME_SYSTEM":"UTC","NORAD_CAT_ID":"47879","OBJECT_TYPE":"PAYLOAD","COUNTRY_CODE":"US","REV_AT_EPOCH":"6123","OBJECT_NAME":"STARLINK-2336","MEAN_ANOMALY":"314.9501","MEAN_MOTION_DOT":"0.00016648","TLE_LINE1":"1 47879U 21021V   22103.76065068  .00016648  00000-0  11336-2 0  9998","PERIOD":"95.592","PERIAPSIS":"545.898","SEMIMAJOR_AXIS":"6925.321","OBJECT_ID":"2021-021V","ARG_OF_PERICENTER":"45.1639","FILE":"3400454","MEAN_MOTION":"15.06409149","MEAN_ELEMENT_THEORY":"SGP4","ELEMENT_SET_NO":"999","DECAY_DATE":null,"ECCENTRICITY":"0.00018590","REF_FRAME":"TEME","BSTAR":"0.00113360000000","TLE_LINE2":"2 47879  53.0537 207.8737 0001859  45.1639 314.9501 15.06409149 61239","CENTER_NAME":"EARTH","EPHEMERIS_TYPE":"0","INCLINATION":"53.0537","EPOCH":"2022-04-13T18:15:20.218752","SITE":"AFETR","LAUNCH_DATE":"2021-03-14","MEAN_MOTION_DDOT":"0.0000000000000","CLASSIFICATION_TYPE":"U"},{"CENTER_NAME":"EARTH","EPHEMERIS_TYPE":"0","TLE_LINE2":"2 47880  53.0552 203.5697 0002146  39.7950 320.3196 15.06410907 61102","BSTAR":"0.00087684000000","REF_FRAME":"TEME","DECAY_DATE":null,"ECCENTRICITY":"0.00021460","CLASSIFICATION_TYPE":"U","MEAN_MOTION_DDOT":"0.0000000000000","SITE":"AFETR","LAUNCH_DATE":"2021-03-14","EPOCH":"2022-04-13T14:25:06.051072","INCLINATION":"53.0552","REV_AT_EPOCH":"6110","COUNTRY_CODE":"US","NORAD_CAT_ID":"47880","OBJECT_TYPE":"PAYLOAD","RA_OF_ASC_NODE":"203.5697","TIME_SYSTEM":"UTC","GP_ID":"201175247","RCS_SIZE":"LARGE","APOAPSIS":"548.666","ELEMENT_SET_NO":"999","MEAN_MOTION":"15.06410907","MEAN_ELEMENT_THEORY":"SGP4","FILE":"3400454","PERIOD":"95.591","PERIAPSIS":"545.694","SEMIMAJOR_AXIS":"6925.315","ARG_OF_PERICENTER":"39.7950","OBJECT_ID":"2021-021W","TLE_LINE1":"1 47880U 21021W   22103.60076448  .00012807  00000-0  87684-3 0  9990","MEAN_ANOMALY":"320.3196","OBJECT_NAME":"STARLINK-2337","MEAN_MOTION_DOT":"0.00012807"},{"TLE_LINE2":"2 47881  53.0567 203.7730 0001540  65.5551 294.5598 15.06391006 61061","BSTAR":"0.00010875000000","CENTER_NAME":"EARTH","EPHEMERIS_TYPE":"0","ECCENTRICITY":"0.00015400","DECAY_DATE":null,"REF_FRAME":"TEME","INCLINATION":"53.0567","MEAN_MOTION_DDOT":"0.0000000000000","CLASSIFICATION_TYPE":"U","EPOCH":"2022-04-13T13:26:43.084032","SITE":"AFETR","LAUNCH_DATE":"2021-03-14","TIME_SYSTEM":"UTC","RA_OF_ASC_NODE":"203.7730","NORAD_CAT_ID":"47881","OBJECT_TYPE":"PAYLOAD","APOAPSIS":"548.308","GP_ID":"201141446","RCS_SIZE":"LARGE","REV_AT_EPOCH":"6106","COUNTRY_CODE":"US","TLE_LINE1":"1 47881U 21021X   22103.56022088  .00001338  00000-0  10875-3 0  9992","OBJECT_NAME":"STARLINK-2339","MEAN_ANOMALY":"294.5598","MEAN_MOTION_DOT":"0.00001338","MEAN_MOTION":"15.06391006","MEAN_ELEMENT_THEORY":"SGP4","ELEMENT_SET_NO":"999","SEMIMAJOR_AXIS":"6925.376","PERIAPSIS":"546.175","PERIOD":"95.593","ARG_OF_PERICENTER":"65.5551","OBJECT_ID":"2021-021X","FILE":"3399963"},{"INCLINATION":"53.0548","EPOCH":"2022-04-13T16:01:58.138464","LAUNCH_DATE":"2021-03-14","SITE":"AFETR","MEAN_MOTION_DDOT":"0.0000000000000","CLASSIFICATION_TYPE":"U","DECAY_DATE":null,"ECCENTRICITY":"0.00015360","REF_FRAME":"TEME","TLE_LINE2":"2 47882  53.0548 193.2785 0001536  67.1938 292.9213 15.06404284 61425","BSTAR":"0.00046245000000","EPHEMERIS_TYPE":"0","CENTER_NAME":"EARTH","MEAN_MOTION_DOT":"0.00006614","OBJECT_NAME":"STARLINK-2340","MEAN_ANOMALY":"292.9213","TLE_LINE1":"1 47882U 21021Y   22103.66803401  .00006614  00000-0  46245-3 0  9992","ARG_OF_PERICENTER":"67.1938","OBJECT_ID":"2021-021Y","PERIOD":"95.592","PERIAPSIS":"546.137","SEMIMAJOR_AXIS":"6925.335","FILE":"3400454","MEAN_ELEMENT_THEORY":"SGP4","MEAN_MOTION":"15.06404284","ELEMENT_SET_NO":"999","APOAPSIS":"548.264","RCS_SIZE":"LARGE","GP_ID":"201174245","RA_OF_ASC_NODE":"193.2785","TIME_SYSTEM":"UTC","OBJECT_TYPE":"PAYLOAD","NORAD_CAT_ID":"47882","COUNTRY_CODE":"US","REV_AT_EPOCH":"6142"},{"INCLINATION":"53.0535","CLASSIFICATION_TYPE":"U","MEAN_MOTION_DDOT":"0.0000000000000","SITE":"AFETR","LAUNCH_DATE":"2021-03-14","EPOCH":"2022-04-13T18:32:34.429344","CENTER_NAME":"EARTH","EPHEMERIS_TYPE":"0","TLE_LINE2":"2 47883  53.0535 197.8114 0001716  57.2304 302.8850 15.06401768 61371","BSTAR":"0.00037533000000","REF_FRAME":"TEME","ECCENTRICITY":"0.00017160","DECAY_DATE":null,"TLE_LINE1":"1 47883U 21021Z   22103.77262071  .00005314  00000-0  37533-3 0  9993","MEAN_ANOMALY":"302.8850","OBJECT_NAME":"STARLINK-2342","MEAN_MOTION_DOT":"0.00005314","ELEMENT_SET_NO":"999","MEAN_MOTION":"15.06401768","MEAN_ELEMENT_THEORY":"SGP4","FILE":"3400454","PERIAPSIS":"546.020","SEMIMAJOR_AXIS":"6925.343","PERIOD":"95.592","ARG_OF_PERICENTER":"57.2304","OBJECT_ID":"2021-021Z","NORAD_CAT_ID":"47883","OBJECT_TYPE":"PAYLOAD","TIME_SYSTEM":"UTC","RA_OF_ASC_NODE":"197.8114","GP_ID":"201175497","RCS_SIZE":"LARGE","APOAPSIS":"548.397","REV_AT_EPOCH":"6137","COUNTRY_CODE":"US"},{"COUNTRY_CODE":"US","REV_AT_EPOCH":"6112","RCS_SIZE":"LARGE","GP_ID":"201175748","APOAPSIS":"548.477","OBJECT_TYPE":"PAYLOAD","NORAD_CAT_ID":"47884","RA_OF_ASC_NODE":"202.8916","TIME_SYSTEM":"UTC","FILE":"3400454","ARG_OF_PERICENTER":"53.6150","OBJECT_ID":"2021-021AA","PERIOD":"95.591","PERIAPSIS":"545.880","SEMIMAJOR_AXIS":"6925.314","ELEMENT_SET_NO":"999","MEAN_ELEMENT_THEORY":"SGP4","MEAN_MOTION":"15.06411403","MEAN_MOTION_DOT":"0.00016942","OBJECT_NAME":"STARLINK-2343","MEAN_ANOMALY":"306.5012","TLE_LINE1":"1 47884U 21021AA  22103.75557645  .00016942  00000-0  11532-2 0  9995","REF_FRAME":"TEME","DECAY_DATE":null,"ECCENTRICITY":"0.00018750","EPHEMERIS_TYPE":"0","CENTER_NAME":"EARTH","BSTAR":"0.00115320000000","TLE_LINE2":"2 47884  53.0553 202.8916 0001875  53.6150 306.5012 15.06411403 61125","LAUNCH_DATE":"2021-03-14","SITE":"AFETR","EPOCH":"2022-04-13T18:08:01.805280","CLASSIFICATION_TYPE":"U","MEAN_MOTION_DDOT":"0.0000000000000","INCLINATION":"53.0553"},{"REV_AT_EPOCH":"6122","COUNTRY_CODE":"US","NORAD_CAT_ID":"47885","OBJECT_TYPE":"PAYLOAD","RA_OF_ASC_NODE":"207.6103","TIME_SYSTEM":"UTC","GP_ID":"201174496","RCS_SIZE":"LARGE","APOAPSIS":"548.287","ELEMENT_SET_NO":"999","MEAN_MOTION":"15.06420642","MEAN_ELEMENT_THEORY":"SGP4","FILE":"3400454","SEMIMAJOR_AXIS":"6925.285","PERIAPSIS":"546.013","PERIOD":"95.591","ARG_OF_PERICENTER":"55.1500","OBJECT_ID":"2021-021AB","TLE_LINE1":"1 47885U 21021AB  22103.81593358  .00020884  00000-0  14160-2 0  9994","OBJECT_NAME":"STARLINK-2344","MEAN_ANOMALY":"304.9644","MEAN_MOTION_DOT":"0.00020884","CENTER_NAME":"EARTH","EPHEMERIS_TYPE":"0","TLE_LINE2":"2 47885  53.0538 207.6103 0001642  55.1500 304.9644 15.06420642 61227","BSTAR":"0.00141600000000","REF_FRAME":"TEME","ECCENTRICITY":"0.00016420","DECAY_DATE":null,"CLASSIFICATION_TYPE":"U","MEAN_MOTION_DDOT":"0.0000000000000","SITE":"AFETR","LAUNCH_DATE":"2021-03-14","EPOCH":"2022-04-13T19:34:56.661312","INCLINATION":"53.0538"},{"REF_FRAME":"TEME","ECCENTRICITY":"0.00018230","DECAY_DATE":null,"EPHEMERIS_TYPE":"0","CENTER_NAME":"EARTH","TLE_LINE2":"2 47886  53.0559 198.2185 0001823  48.0158 312.0986 15.06400862 61194","BSTAR":"0.00020356000000","LAUNCH_DATE":"2021-03-14","SITE":"AFETR","EPOCH":"2022-04-13T16:23:48.981120","CLASSIFICATION_TYPE":"U","MEAN_MOTION_DDOT":"0.0000000000000","INCLINATION":"53.0559","COUNTRY_CODE":"US","REV_AT_EPOCH":"6119","RCS_SIZE":"LARGE","GP_ID":"201174746","APOAPSIS":"548.473","OBJECT_TYPE":"PAYLOAD","NORAD_CAT_ID":"47886","RA_OF_ASC_NODE":"198.2185","TIME_SYSTEM":"UTC","FILE":"3400454","ARG_OF_PERICENTER":"48.0158","OBJECT_ID":"2021-021AC","SEMIMAJOR_AXIS":"6925.346","PERIAPSIS":"545.948","PERIOD":"95.592","ELEMENT_SET_NO":"999","MEAN_ELEMENT_THEORY":"SGP4","MEAN_MOTION":"15.06400862","MEAN_MOTION_DOT":"0.00002752","MEAN_ANOMALY":"312.0986","OBJECT_NAME":"STARLINK-2345","TLE_LINE1":"1 47886U 21021AC  22103.68320580  .00002752  00000-0  20356-3 0  9994"},{"BSTAR":"0.00112720000000","TLE_LINE2":"2 47887  53.0527 202.7989 0001562  60.7678 299.3467 15.06421334 61133","EPHEMERIS_TYPE":"0","CENTER_NAME":"EARTH","DECAY_DATE":null,"ECCENTRICITY":"0.00015620","REF_FRAME":"TEME","INCLINATION":"53.0527","MEAN_MOTION_DDOT":"0.0000000000000","CLASSIFICATION_TYPE":"U","EPOCH":"2022-04-13T18:34:34.167648","LAUNCH_DATE":"2021-03-14","SITE":"AFETR","TIME_SYSTEM":"UTC","RA_OF_ASC_NODE":"202.7989","OBJECT_TYPE":"PAYLOAD","NORAD_CAT_ID":"47887","APOAPSIS":"548.230","RCS_SIZE":"LARGE","GP_ID":"201174997","REV_AT_EPOCH":"6113","COUNTRY_CODE":"US","TLE_LINE1":"1 47887U 21021AD  22103.77400657  .00016558  00000-0  11272-2 0  9994","MEAN_MOTION_DOT":"0.00016558","MEAN_ANOMALY":"299.3467","OBJECT_NAME":"STARLINK-2346","MEAN_ELEMENT_THEORY":"SGP4","MEAN_MOTION":"15.06421334","ELEMENT_SET_NO":"999","ARG_OF_PERICENTER":"60.7678","OBJECT_ID":"2021-021AD","PERIAPSIS":"546.066","PERIOD":"95.591","SEMIMAJOR_AXIS":"6925.283","FILE":"3400454"}];
